[{"OBJECT_NAME":"STARLINK-33669","OBJECT_ID":"2025-053U","EPOCH":"2026-03-21T22:52:06.589056","MEAN_MOTION":15.27554489,"ECCENTRICITY":0.00010022,"INCLINATION":43.0002,"RA_OF_ASC_NODE":172.11,"ARG_OF_PERICENTER":281.6726,"MEAN_ANOMALY":78.4013,"EPHEMERIS_TYPE":0,"CLASSIFICATION_TYPE":"U","NORAD_CAT_ID":63283,"ELEMENT_SET_NO":999,"REV_AT_EPOCH":5807,"BSTAR":0.00066998427,"MEAN_MOTION_DOT":0.00018206,"MEAN_MOTION_DDOT":0},{"OBJECT_NAME":"STARLINK-33673","OBJECT_ID":"2025-053V","EPOCH":"2026-03-21T22:03:31.759776","MEAN_MOTION":15.27573342,"ECCENTRICITY":5.727e-5,"INCLINATION":43,"RA_OF_ASC_NODE":164.9188,"ARG_OF_PERICENTER":22.6265,"MEAN_ANOMALY":337.4612,"EPHEMERIS_TYPE":0,"CLASSIFICATION_TYPE":"U","NORAD_CAT_ID":63284,"ELEMENT_SET_NO":999,"REV_AT_EPOCH":5826,"BSTAR":0.00011354245,"MEAN_MOTION_DOT":2.863e-5,"MEAN_MOTION_DDOT":0},{"OBJECT_NAME":"STARLINK-33662","OBJECT_ID":"2025-053W","EPOCH":"2026-03-21T17:06:54.963360","MEAN_MOTION":15.27637457,"ECCENTRICITY":0.00022856,"INCLINATION":43.0004,"RA_OF_ASC_NODE":173.7578,"ARG_OF_PERICENTER":21.8032,"MEAN_ANOMALY":338.2917,"EPHEMERIS_TYPE":0,"CLASSIFICATION_TYPE":"U","NORAD_CAT_ID":63285,"ELEMENT_SET_NO":999,"REV_AT_EPOCH":5803,"BSTAR":0.0010075851,"MEAN_MOTION_DOT":0.00027618,"MEAN_MOTION_DDOT":0},{"OBJECT_NAME":"STARLINK-33613","OBJECT_ID":"2025-053X","EPOCH":"2026-03-21T16:04:12.786816","MEAN_MOTION":15.27644396,"ECCENTRICITY":0.00014849,"INCLINATION":42.9991,"RA_OF_ASC_NODE":174.294,"ARG_OF_PERICENTER":273.2005,"MEAN_ANOMALY":86.8677,"EPHEMERIS_TYPE":0,"CLASSIFICATION_TYPE":"U","NORAD_CAT_ID":63286,"ELEMENT_SET_NO":999,"REV_AT_EPOCH":5802,"BSTAR":0.0012554002,"MEAN_MOTION_DOT":0.00034514,"MEAN_MOTION_DDOT":0},{"OBJECT_NAME":"STARLINK-33680","OBJECT_ID":"2025-053Y","EPOCH":"2026-03-21T23:01:21.220896","MEAN_MOTION":15.27538454,"ECCENTRICITY":7.621e-5,"INCLINATION":43.0003,"RA_OF_ASC_NODE":172.164,"ARG_OF_PERICENTER":49.9989,"MEAN_ANOMALY":310.0929,"EPHEMERIS_TYPE":0,"CLASSIFICATION_TYPE":"U","NORAD_CAT_ID":63287,"ELEMENT_SET_NO":999,"REV_AT_EPOCH":5812,"BSTAR":0.00084296948,"MEAN_MOTION_DOT":0.00022977,"MEAN_MOTION_DDOT":0},{"OBJECT_NAME":"STARLINK-11568 [DTC]","OBJECT_ID":"2025-057A","EPOCH":"2026-03-21T15:48:02.984832","MEAN_MOTION":15.71027016,"ECCENTRICITY":0.00029403,"INCLINATION":42.9997,"RA_OF_ASC_NODE":192.0607,"ARG_OF_PERICENTER":259.1156,"MEAN_ANOMALY":100.9381,"EPHEMERIS_TYPE":0,"CLASSIFICATION_TYPE":"U","NORAD_CAT_ID":63307,"ELEMENT_SET_NO":999,"REV_AT_EPOCH":5906,"BSTAR":0.0018150557,"MEAN_MOTION_DOT":0.00241238,"MEAN_MOTION_DDOT":0},{"OBJECT_NAME":"STARLINK-11575 [DTC]","OBJECT_ID":"2025-057B","EPOCH":"2026-03-21T16:26:16.679328","MEAN_MOTION":15.70969241,"ECCENTRICITY":0.00015969,"INCLINATION":43.001,"RA_OF_ASC_NODE":192.2744,"ARG_OF_PERICENTER":261.5374,"MEAN_ANOMALY":98.5313,"EPHEMERIS_TYPE":0,"CLASSIFICATION_TYPE":"U","NORAD_CAT_ID":63308,"ELEMENT_SET_NO":999,"REV_AT_EPOCH":5906,"BSTAR":0.0022380339,"MEAN_MOTION_DOT":0.00298909,"MEAN_MOTION_DDOT":0},{"OBJECT_NAME":"STARLINK-11585 [DTC]","OBJECT_ID":"2025-057C","EPOCH":"2026-03-21T16:03:20.536416","MEAN_MOTION":15.70883255,"ECCENTRICITY":0.00017428,"INCLINATION":43.0004,"RA_OF_ASC_NODE":192.1451,"ARG_OF_PERICENTER":258.4501,"MEAN_ANOMALY":101.6171,"EPHEMERIS_TYPE":0,"CLASSIFICATION_TYPE":"U","NORAD_CAT_ID":63309,"ELEMENT_SET_NO":999,"REV_AT_EPOCH":5909,"BSTAR":0.0023801816,"MEAN_MOTION_DOT":0.00317496,"MEAN_MOTION_DDOT":0},{"OBJECT_NAME":"STARLINK-11587 [DTC]","OBJECT_ID":"2025-057D","EPOCH":"2026-03-21T16:56:50.863200","MEAN_MOTION":15.71025709,"ECCENTRICITY":0.00046398,"INCLINATION":43.0014,"RA_OF_ASC_NODE":192.4455,"ARG_OF_PERICENTER":260.4683,"MEAN_ANOMALY":99.566,"EPHEMERIS_TYPE":0,"CLASSIFICATION_TYPE":"U","NORAD_CAT_ID":63310,"ELEMENT_SET_NO":999,"REV_AT_EPOCH":5906,"BSTAR":0.0024471737,"MEAN_MOTION_DOT":0.00328935,"MEAN_MOTION_DDOT":0},{"OBJECT_NAME":"STARLINK-11589 [DTC]","OBJECT_ID":"2025-057E","EPOCH":"2026-03-21T18:36:03.414528","MEAN_MOTION":15.70936539,"ECCENTRICITY":0.00035861,"INCLINATION":43.0013,"RA_OF_ASC_NODE":192.1044,"ARG_OF_PERICENTER":268.1564,"MEAN_ANOMALY":91.8893,"EPHEMERIS_TYPE":0,"CLASSIFICATION_TYPE":"U","NORAD_CAT_ID":63311,"ELEMENT_SET_NO":999,"REV_AT_EPOCH":5907,"BSTAR":0.0018526888,"MEAN_MOTION_DOT":0.00245457,"MEAN_MOTION_DDOT":0},{"OBJECT_NAME":"STARLINK-11650 [DTC]","OBJECT_ID":"2025-057F","EPOCH":"2026-03-20T16:17:57.865344","MEAN_MOTION":15.70898506,"ECCENTRICITY":0.00020517,"INCLINATION":43.0005,"RA_OF_ASC_NODE":198.4969,"ARG_OF_PERICENTER":290.5504,"MEAN_ANOMALY":69.5144,"EPHEMERIS_TYPE":0,"CLASSIFICATION_TYPE":"U","NORAD_CAT_ID":63312,"ELEMENT_SET_NO":999,"REV_AT_EPOCH":5893,"BSTAR":0.0019487055,"MEAN_MOTION_DOT":0.00258155,"MEAN_MOTION_DDOT":0},{"OBJECT_NAME":"STARLINK-11648 [DTC]","OBJECT_ID":"2025-057G","EPOCH":"2026-03-20T16:16:38.884512","MEAN_MOTION":15.70881245,"ECCENTRICITY":0.00022633,"INCLINATION":43.0055,"RA_OF_ASC_NODE":198.4913,"ARG_OF_PERICENTER":265.9718,"MEAN_ANOMALY":94.0891,"EPHEMERIS_TYPE":0,"CLASSIFICATION_TYPE":"U","NORAD_CAT_ID":63313,"ELEMENT_SET_NO":999,"REV_AT_EPOCH":5890,"BSTAR":0.0013798972,"MEAN_MOTION_DOT":0.00180834,"MEAN_MOTION_DDOT":0},{"OBJECT_NAME":"STARLINK-11640 [DTC]","OBJECT_ID":"2025-057H","EPOCH":"2026-03-21T16:33:55.488384","MEAN_MOTION":15.70935448,"ECCENTRICITY":0.00012604,"INCLINATION":43.0008,"RA_OF_ASC_NODE":192.3142,"ARG_OF_PERICENTER":275.9613,"MEAN_ANOMALY":84.1111,"EPHEMERIS_TYPE":0,"CLASSIFICATION_TYPE":"U","NORAD_CAT_ID":63314,"ELEMENT_SET_NO":999,"REV_AT_EPOCH":5906,"BSTAR":0.00045297411,"MEAN_MOTION_DOT":0.00058317,"MEAN_MOTION_DDOT":0},{"OBJECT_NAME":"STARLINK-11652 [DTC]","OBJECT_ID":"2025-057J","EPOCH":"2026-03-21T17:50:11.152032","MEAN_MOTION":15.70784894,"ECCENTRICITY":0.00016739,"INCLINATION":43.0005,"RA_OF_ASC_NODE":191.8437,"ARG_OF_PERICENTER":261.7834,"MEAN_ANOMALY":98.2844,"EPHEMERIS_TYPE":0,"CLASSIFICATION_TYPE":"U","NORAD_CAT_ID":63315,"ELEMENT_SET_NO":999,"REV_AT_EPOCH":5910,"BSTAR":0.001915243,"MEAN_MOTION_DOT":0.00252326,"MEAN_MOTION_DDOT":0},{"OBJECT_NAME":"STARLINK-11645 [DTC]","OBJECT_ID":"2025-057K","EPOCH":"2026-03-21T15:17:39.649344","MEAN_MOTION":15.71308788,"ECCENTRICITY":0.00030065,"INCLINATION":43,"RA_OF_ASC_NODE":192.7826,"ARG_OF_PERICENTER":281.8837,"MEAN_ANOMALY":78.1694,"EPHEMERIS_TYPE":0,"CLASSIFICATION_TYPE":"U","NORAD_CAT_ID":63316,"ELEMENT_SET_NO":999,"REV_AT_EPOCH":5908,"BSTAR":0.0036038101,"MEAN_MOTION_DOT":0.00500675,"MEAN_MOTION_DDOT":0},{"OBJECT_NAME":"STARLINK-11633 [DTC]","OBJECT_ID":"2025-057L","EPOCH":"2026-03-21T18:43:31.694880","MEAN_MOTION":15.7090282,"ECCENTRICITY":0.00021822,"INCLINATION":43.0006,"RA_OF_ASC_NODE":191.2466,"ARG_OF_PERICENTER":289.9292,"MEAN_ANOMALY":70.1341,"EPHEMERIS_TYPE":0,"CLASSIFICATION_TYPE":"U","NORAD_CAT_ID":63317,"ELEMENT_SET_NO":999,"REV_AT_EPOCH":5908,"BSTAR":0.002382152,"MEAN_MOTION_DOT":0.00318042,"MEAN_MOTION_DDOT":0}]
