STARLINK-33669          
1 63283U 25053U   26080.95285404  .00018206  00000+0  66998-3 0  9997
2 63283  43.0002 172.1100 0001002 281.6726  78.4013 15.27554489 58073
STARLINK-33673          
1 63284U 25053V   26080.91911759  .00002863  00000+0  11354-3 0  9991
2 63284  43.0000 164.9188 0000572  22.6265 337.4612 15.27573342 58262
STARLINK-33662          
1 63285U 25053W   26080.71313615  .00027618  00000+0  10076-2 0  9991
2 63285  43.0004 173.7578 0002285  21.8032 338.2917 15.27637457 58034
STARLINK-33613          
1 63286U 25053X   26080.66959244  .00034514  00000+0  12554-2 0  9996
2 63286  42.9991 174.2940 0001484 273.2005  86.8677 15.27644396 58028
STARLINK-33680          
1 63287U 25053Y   26080.95927339  .00022977  00000+0  84297-3 0  9993
2 63287  43.0003 172.1640 0000762  49.9989 310.0929 15.27538454 58126
STARLINK-11568 [DTC]    
1 63307U 25057A   26080.65836788  .00241238  00000+0  18151-2 0  9992
2 63307  42.9997 192.0607 0002940 259.1156 100.9381 15.71027016 59062
STARLINK-11575 [DTC]    
1 63308U 25057B   26080.68491527  .00298909  00000+0  22380-2 0  9990
2 63308  43.0010 192.2744 0001596 261.5374  98.5313 15.70969241 59061
STARLINK-11585 [DTC]    
1 63309U 25057C   26080.66898769  .00317496  00000+0  23802-2 0  9991
2 63309  43.0004 192.1451 0001742 258.4501 101.6171 15.70883255 59090
STARLINK-11587 [DTC]    
1 63310U 25057D   26080.70614425  .00328935  00000+0  24472-2 0  9997
2 63310  43.0014 192.4455 0004639 260.4683  99.5660 15.71025709 59060
STARLINK-11589 [DTC]    
1 63311U 25057E   26080.77503952  .00245457  00000+0  18527-2 0  9998
2 63311  43.0013 192.1044 0003586 268.1564  91.8893 15.70936539 59079
STARLINK-11650 [DTC]    
1 63312U 25057F   26079.67914196  .00258155  00000+0  19487-2 0  9997
2 63312  43.0005 198.4969 0002051 290.5504  69.5144 15.70898506 58931
STARLINK-11648 [DTC]    
1 63313U 25057G   26079.67822783  .00180834  00000+0  13799-2 0  9996
2 63313  43.0055 198.4913 0002263 265.9718  94.0891 15.70881245 58905
STARLINK-11640 [DTC]    
1 63314U 25057H   26080.69022556  .00058317  00000+0  45297-3 0  9990
2 63314  43.0008 192.3142 0001260 275.9613  84.1111 15.70935448 59060
STARLINK-11652 [DTC]    
1 63315U 25057J   26080.74318463  .00252326  00000+0  19152-2 0  9998
2 63315  43.0005 191.8437 0001673 261.7834  98.2844 15.70784894 59106
STARLINK-11645 [DTC]    
1 63316U 25057K   26080.63726446  .00500675  00000+0  36038-2 0  9996
2 63316  43.0000 192.7826 0003006 281.8837  78.1694 15.71308788 59084
STARLINK-11633 [DTC]    
1 63317U 25057L   26080.78022795  .00318042  00000+0  23822-2 0  9991
2 63317  43.0006 191.2466 0002182 289.9292  70.1341 15.70902820 59080
